{
    "type": "FeatureCollection",
    "features": [
        {
            "type": "Feature",
            "geometry": {
                "type": "Point",
                "coordinates": [
                    -17.26201978,
                    28.16670922
                ]
            },
            "properties": {
                "id": "2",
                "orden": 0,
                "value": 0.5431285026023575,
                "ranking": 1
            }
        },
        {
            "type": "Feature",
            "geometry": {
                "type": "Point",
                "coordinates": [
                    -17.22886115,
                    28.17935414
                ]
            },
            "properties": {
                "id": "1",
                "orden": 1,
                "value": 0.45687149739764255,
                "ranking": 0
            }
        }
    ]
}